TEST
1 54365U 22158E   24066.54268979  .00097925  00000-0  15333-2 0  9998
2 54365  97.4322 173.6203 0003298  58.4100 301.7475 15.53389722 71363